{
  "type": "FeatureCollection",
  "features": [
    {
      "type": "Feature",
      "properties": {
        "norad_id": 31259,
        "name": "FENGYUN 1C DEB",
        "group": "fengyun-1c-debris",
        "lat": 31.31359493737525,
        "lon": -110.96650922940903,
        "alt_km": 812.6263377351979,
        "timestamp": "2025-12-10T07:43:55.060589+00:00",
        "meta_object_name": "FENGYUN 1C DEB",
        "meta_object_id": "1999-025BMR",
        "meta_epoch": "2025-12-09T16:29:45.541824",
        "meta_mean_motion": 14.1499341,
        "meta_eccentricity": 0.0065747,
        "meta_inclination": 99.0093,
        "meta_ra_of_asc_node": 62.8543,
        "meta_arg_of_pericenter": 204.3106,
        "meta_mean_anomaly": 312.4227,
        "meta_ephemeris_type": 0,
        "meta_classification_type": "U",
        "meta_norad_cat_id": 31259,
        "meta_element_set_no": 999,
        "meta_rev_at_epoch": 95526,
        "meta_bstar": 0.0029101,
        "meta_mean_motion_dot": 5.709e-05,
        "meta_mean_motion_ddot": 0,
        "tle_line1": "1 31259U 99025BMR 25343.68733266  .00005709  00000+0  29101-2 0  9998",
        "tle_line2": "2 31259  99.0093  62.8543 0065747 204.3106 312.4227 14.14993410955269"
      },
      "geometry": {
        "type": "Point",
        "coordinates": [
          -110.96650922940903,
          31.31359493737525
        ]
      }
    },
    {
      "type": "Feature",
      "properties": {
        "norad_id": 31260,
        "name": "FENGYUN 1C DEB",
        "group": "fengyun-1c-debris",
        "lat": 46.28350703314338,
        "lon": -128.3258332853257,
        "alt_km": 776.2443209346111,
        "timestamp": "2025-12-10T07:43:55.060599+00:00",
        "meta_object_name": "FENGYUN 1C DEB",
        "meta_object_id": "1999-025BMS",
        "meta_epoch": "2025-12-09T16:35:49.583040",
        "meta_mean_motion": 14.36399452,
        "meta_eccentricity": 0.004728,
        "meta_inclination": 98.9558,
        "meta_ra_of_asc_node": 240.5117,
        "meta_arg_of_pericenter": 301.6105,
        "meta_mean_anomaly": 85.8656,
        "meta_ephemeris_type": 0,
        "meta_classification_type": "U",
        "meta_norad_cat_id": 31260,
        "meta_element_set_no": 999,
        "meta_rev_at_epoch": 97150,
        "meta_bstar": 0.0017866,
        "meta_mean_motion_dot": 5.256e-05,
        "meta_mean_motion_ddot": 0,
        "tle_line1": "1 31260U 99025BMS 25343.69154610  .00005256  00000+0  17866-2 0  9993",
        "tle_line2": "2 31260  98.9558 240.5117 0047280 301.6105  85.8656 14.36399452971501"
      },
      "geometry": {
        "type": "Point",
        "coordinates": [
          -128.3258332853257,
          46.28350703314338
        ]
      }
    },
    {
      "type": "Feature",
      "properties": {
        "norad_id": 31261,
        "name": "FENGYUN 1C DEB",
        "group": "fengyun-1c-debris",
        "lat": 30.152050045697933,
        "lon": -67.68660705242277,
        "alt_km": 787.682732773852,
        "timestamp": "2025-12-10T07:43:55.060613+00:00",
        "meta_object_name": "FENGYUN 1C DEB",
        "meta_object_id": "1999-025BMT",
        "meta_epoch": "2025-12-09T14:54:50.110848",
        "meta_mean_motion": 14.4005214,
        "meta_eccentricity": 0.0050015,
        "meta_inclination": 99.0151,
        "meta_ra_of_asc_node": 296.8675,
        "meta_arg_of_pericenter": 242.3648,
        "meta_mean_anomaly": 117.2456,
        "meta_ephemeris_type": 0,
        "meta_classification_type": "U",
        "meta_norad_cat_id": 31261,
        "meta_element_set_no": 999,
        "meta_rev_at_epoch": 97305,
        "meta_bstar": 0.0017303,
        "meta_mean_motion_dot": 5.491e-05,
        "meta_mean_motion_ddot": 0,
        "tle_line1": "1 31261U 99025BMT 25343.62141332  .00005491  00000+0  17303-2 0  9991",
        "tle_line2": "2 31261  99.0151 296.8675 0050015 242.3648 117.2456 14.40052140973054"
      },
      "geometry": {
        "type": "Point",
        "coordinates": [
          -67.68660705242277,
          30.152050045697933
        ]
      }
    },
    {
      "type": "Feature",
      "properties": {
        "norad_id": 31262,
        "name": "FENGYUN 1C DEB",
        "group": "fengyun-1c-debris",
        "lat": -58.6221881757361,
        "lon": -127.32331555777579,
        "alt_km": 866.9751301835504,
        "timestamp": "2025-12-10T07:43:55.060623+00:00",
        "meta_object_name": "FENGYUN 1C DEB",
        "meta_object_id": "1999-025BMU",
        "meta_epoch": "2025-12-09T05:28:29.737344",
        "meta_mean_motion": 14.1814704,
        "meta_eccentricity": 0.0056301,
        "meta_inclination": 98.9991,
        "meta_ra_of_asc_node": 66.6285,
        "meta_arg_of_pericenter": 108.4012,
        "meta_mean_anomaly": 308.5296,
        "meta_ephemeris_type": 0,
        "meta_classification_type": "U",
        "meta_norad_cat_id": 31262,
        "meta_element_set_no": 999,
        "meta_rev_at_epoch": 95659,
        "meta_bstar": 0.0025233,
        "meta_mean_motion_dot": 5.221e-05,
        "meta_mean_motion_ddot": 0,
        "tle_line1": "1 31262U 99025BMU 25343.22812196  .00005221  00000+0  25233-2 0  9993",
        "tle_line2": "2 31262  98.9991  66.6285 0056301 108.4012 308.5296 14.18147040956592"
      },
      "geometry": {
        "type": "Point",
        "coordinates": [
          -127.32331555777579,
          -58.6221881757361
        ]
      }
    },
    {
      "type": "Feature",
      "properties": {
        "norad_id": 31263,
        "name": "FENGYUN 1C DEB",
        "group": "fengyun-1c-debris",
        "lat": -12.599634769189153,
        "lon": 85.88844482428232,
        "alt_km": 427.6627977733842,
        "timestamp": "2025-12-10T07:43:55.060633+00:00",
        "meta_object_name": "FENGYUN 1C DEB",
        "meta_object_id": "1999-025BMV",
        "meta_epoch": "2025-12-09T18:28:32.532672",
        "meta_mean_motion": 15.45396668,
        "meta_eccentricity": 0.0022567,
        "meta_inclination": 98.9895,
        "meta_ra_of_asc_node": 267.2326,
        "meta_arg_of_pericenter": 119.508,
        "meta_mean_anomaly": 240.8418,
        "meta_ephemeris_type": 0,
        "meta_classification_type": "U",
        "meta_norad_cat_id": 31263,
        "meta_element_set_no": 999,
        "meta_rev_at_epoch": 97120,
        "meta_bstar": 0.019323,
        "meta_mean_motion_dot": 0.01020745,
        "meta_mean_motion_ddot": 0,
        "tle_line1": "1 31263U 99025BMV 25343.76982098  .01020745  00000+0  19323-1 0  9993",
        "tle_line2": "2 31263  98.9895 267.2326 0022567 119.5080 240.8418 15.45396668971208"
      },
      "geometry": {
        "type": "Point",
        "coordinates": [
          85.88844482428232,
          -12.599634769189153
        ]
      }
    },
    {
      "type": "Feature",
      "properties": {
        "norad_id": 31264,
        "name": "FENGYUN 1C DEB",
        "group": "fengyun-1c-debris",
        "lat": -28.142816349410733,
        "lon": 56.3126174064659,
        "alt_km": 836.7186963112872,
        "timestamp": "2025-12-10T07:43:55.060646+00:00",
        "meta_object_name": "FENGYUN 1C DEB",
        "meta_object_id": "1999-025BMW",
        "meta_epoch": "2025-12-07T22:57:40.709088",
        "meta_mean_motion": 14.18572534,
        "meta_eccentricity": 0.00012296,
        "meta_inclination": 99.1145,
        "meta_ra_of_asc_node": 238.8095,
        "meta_arg_of_pericenter": 11.7195,
        "meta_mean_anomaly": 3.3983,
        "meta_ephemeris_type": 0,
        "meta_classification_type": "U",
        "meta_norad_cat_id": 31264,
        "meta_element_set_no": 999,
        "meta_rev_at_epoch": 96361,
        "meta_bstar": 0.00088735964,
        "meta_mean_motion_dot": 1.79e-05,
        "meta_mean_motion_ddot": 0,
        "tle_line1": "1 31264U 99025BMW 25341.95672117  .00001790  00000+0  88736-3 0  9995",
        "tle_line2": "2 31264  99.1145 238.8095 0001229  11.7195   3.3983 14.18572534963611"
      },
      "geometry": {
        "type": "Point",
        "coordinates": [
          56.3126174064659,
          -28.142816349410733
        ]
      }
    },
    {
      "type": "Feature",
      "properties": {
        "norad_id": 31266,
        "name": "FENGYUN 1C DEB",
        "group": "fengyun-1c-debris",
        "lat": -26.059386272298003,
        "lon": 142.660752234164,
        "alt_km": 813.56858047473,
        "timestamp": "2025-12-10T07:43:55.060657+00:00",
        "meta_object_name": "FENGYUN 1C DEB",
        "meta_object_id": "1999-025BMY",
        "meta_epoch": "2025-12-07T17:09:54.868896",
        "meta_mean_motion": 14.22321599,
        "meta_eccentricity": 0.01297198,
        "meta_inclination": 99.2569,
        "meta_ra_of_asc_node": 324.4986,
        "meta_arg_of_pericenter": 298.6215,
        "meta_mean_anomaly": 248.0558,
        "meta_ephemeris_type": 0,
        "meta_classification_type": "U",
        "meta_norad_cat_id": 31266,
        "meta_element_set_no": 999,
        "meta_rev_at_epoch": 97134,
        "meta_bstar": 0.00063465268,
        "meta_mean_motion_dot": 1.488e-05,
        "meta_mean_motion_ddot": 0,
        "tle_line1": "1 31266U 99025BMY 25341.71521839  .00001488  00000+0  63465-3 0  9991",
        "tle_line2": "2 31266  99.2569 324.4986 0129719 298.6215 248.0558 14.22321599971342"
      },
      "geometry": {
        "type": "Point",
        "coordinates": [
          142.660752234164,
          -26.059386272298003
        ]
      }
    }
  ]
}